HAWK-7B                 
1 56193U 23054R   26068.68903567  .00007955  00000+0  31011-3 0  9998
2 56193  97.2859 316.7839 0003661  61.5878 298.5730 15.26206341161848
STARLINK-31193          
1 58797U 24012L   26068.34153555 -.00002875  00000+0 -94978-4 0  9992
2 58797  43.0014 167.1338 0001525 274.8459  85.2219 15.27580624121181
